CCSDS_OMM_VERS = 2.0
CREATION_DATE  = 
ORIGINATOR     = 

OBJECT_NAME    = SL-4 R/B
OBJECT_ID      = 2014-021B
CENTER_NAME    = EARTH
REF_FRAME      = TEME
TIME_SYSTEM    = UTC
MEAN_ELEMENT_THEORY = SGP/SGP4

EPOCH          = 2025-12-31T05:05:56.250240
MEAN_MOTION    = 15.37138051
ECCENTRICITY   = .01003383
INCLINATION    = 51.6083
RA_OF_ASC_NODE = 310.7904
ARG_OF_PERICENTER = 212.9799
MEAN_ANOMALY   = 146.4899

EPHEMERIS_TYPE = 0
CLASSIFICATION_TYPE = U
NORAD_CAT_ID   = 39679
ELEMENT_SET_NO = 999
REV_AT_EPOCH   = 64573
BSTAR          = .40083849E-3
MEAN_MOTION_DOT = .17159E-3
MEAN_MOTION_DDOT = 0

CCSDS_OMM_VERS = 2.0
CREATION_DATE  = 
ORIGINATOR     = 

OBJECT_NAME    = ALOS-2
OBJECT_ID      = 2014-029A
CENTER_NAME    = EARTH
REF_FRAME      = TEME
TIME_SYSTEM    = UTC
MEAN_ELEMENT_THEORY = SGP/SGP4

EPOCH          = 2025-12-31T06:35:11.383584
MEAN_MOTION    = 14.79456329
ECCENTRICITY   = .00012478
INCLINATION    = 97.9215
RA_OF_ASC_NODE = 99.8559
ARG_OF_PERICENTER = 107.6962
MEAN_ANOMALY   = 252.4386

EPHEMERIS_TYPE = 0
CLASSIFICATION_TYPE = U
NORAD_CAT_ID   = 39766
ELEMENT_SET_NO = 999
REV_AT_EPOCH   = 62675
BSTAR          = .35059042E-3
MEAN_MOTION_DOT = .2567E-4
MEAN_MOTION_DDOT = 0

CCSDS_OMM_VERS = 2.0
CREATION_DATE  = 
ORIGINATOR     = 

OBJECT_NAME    = YAOGAN-29
OBJECT_ID      = 2015-069A
CENTER_NAME    = EARTH
REF_FRAME      = TEME
TIME_SYSTEM    = UTC
MEAN_ELEMENT_THEORY = SGP/SGP4

EPOCH          = 2025-12-31T07:23:53.886048
MEAN_MOTION    = 14.82907784
ECCENTRICITY   = .00013658
INCLINATION    = 98.0213
RA_OF_ASC_NODE = 28.5390
ARG_OF_PERICENTER = 151.0155
MEAN_ANOMALY   = 209.1134

EPHEMERIS_TYPE = 0
CLASSIFICATION_TYPE = U
NORAD_CAT_ID   = 41038
ELEMENT_SET_NO = 999
REV_AT_EPOCH   = 54574
BSTAR          = .19458358E-3
MEAN_MOTION_DOT = .1523E-4
MEAN_MOTION_DDOT = 0

CCSDS_OMM_VERS = 2.0
CREATION_DATE  = 
ORIGINATOR     = 

OBJECT_NAME    = ASTRO-H (HITOMI)
OBJECT_ID      = 2016-012A
CENTER_NAME    = EARTH
REF_FRAME      = TEME
TIME_SYSTEM    = UTC
MEAN_ELEMENT_THEORY = SGP/SGP4

EPOCH          = 2025-12-31T06:32:06.633600
MEAN_MOTION    = 15.09491307
ECCENTRICITY   = .00095887
INCLINATION    = 31.0002
RA_OF_ASC_NODE = 77.8840
ARG_OF_PERICENTER = 4.7524
MEAN_ANOMALY   = 355.3204

EPHEMERIS_TYPE = 0
CLASSIFICATION_TYPE = U
NORAD_CAT_ID   = 41337
ELEMENT_SET_NO = 999
REV_AT_EPOCH   = 54188
BSTAR          = .34353856E-3
MEAN_MOTION_DOT = .574E-4
MEAN_MOTION_DDOT = 0

CCSDS_OMM_VERS = 2.0
CREATION_DATE  = 
ORIGINATOR     = 

OBJECT_NAME    = HXMT (HUIYAN)
OBJECT_ID      = 2017-034A
CENTER_NAME    = EARTH
REF_FRAME      = TEME
TIME_SYSTEM    = UTC
MEAN_ELEMENT_THEORY = SGP/SGP4

EPOCH          = 2025-12-31T07:12:58.371840
MEAN_MOTION    = 15.16490310
ECCENTRICITY   = .00319355
INCLINATION    = 43.0155
RA_OF_ASC_NODE = 36.6138
ARG_OF_PERICENTER = 164.6669
MEAN_ANOMALY   = 195.5153

EPHEMERIS_TYPE = 0
CLASSIFICATION_TYPE = U
NORAD_CAT_ID   = 42758
ELEMENT_SET_NO = 999
REV_AT_EPOCH   = 47215
BSTAR          = .49848553E-3
MEAN_MOTION_DOT = .9786E-4
MEAN_MOTION_DDOT = 0

CCSDS_OMM_VERS = 2.0
CREATION_DATE  = 
ORIGINATOR     = 

OBJECT_NAME    = CZ-2C R/B
OBJECT_ID      = 2018-054D
CENTER_NAME    = EARTH
REF_FRAME      = TEME
TIME_SYSTEM    = UTC
MEAN_ELEMENT_THEORY = SGP/SGP4

EPOCH          = 2025-12-31T05:30:59.541120
MEAN_MOTION    = 15.78460516
ECCENTRICITY   = .00132158
INCLINATION    = 35.1335
RA_OF_ASC_NODE = 55.1350
ARG_OF_PERICENTER = 327.3670
MEAN_ANOMALY   = 32.6247

EPHEMERIS_TYPE = 0
CLASSIFICATION_TYPE = U
NORAD_CAT_ID   = 43521
ELEMENT_SET_NO = 999
REV_AT_EPOCH   = 41797
BSTAR          = .8579633E-3
MEAN_MOTION_DOT = .158224E-2
MEAN_MOTION_DDOT = 0

CCSDS_OMM_VERS = 2.0
CREATION_DATE  = 
ORIGINATOR     = 

OBJECT_NAME    = SAOCOM 1A
OBJECT_ID      = 2018-076A
CENTER_NAME    = EARTH
REF_FRAME      = TEME
TIME_SYSTEM    = UTC
MEAN_ELEMENT_THEORY = SGP/SGP4

EPOCH          = 2025-12-31T07:18:58.148352
MEAN_MOTION    = 14.82154737
ECCENTRICITY   = .00014097
INCLINATION    = 97.8848
RA_OF_ASC_NODE = 189.4562
ARG_OF_PERICENTER = 82.6895
MEAN_ANOMALY   = 277.4478

EPHEMERIS_TYPE = 0
CLASSIFICATION_TYPE = U
NORAD_CAT_ID   = 43641
ELEMENT_SET_NO = 999
REV_AT_EPOCH   = 39123
BSTAR          = -.3644818E-4
MEAN_MOTION_DOT = -.342E-5
MEAN_MOTION_DDOT = 0

CCSDS_OMM_VERS = 2.0
CREATION_DATE  = 
ORIGINATOR     = 

OBJECT_NAME    = H-2A R/B
OBJECT_ID      = 2018-084L
CENTER_NAME    = EARTH
REF_FRAME      = TEME
TIME_SYSTEM    = UTC
MEAN_ELEMENT_THEORY = SGP/SGP4

EPOCH          = 2025-12-31T02:35:26.035008
MEAN_MOTION    = 15.38133745
ECCENTRICITY   = .00261463
INCLINATION    = 98.8768
RA_OF_ASC_NODE = 203.0042
ARG_OF_PERICENTER = 261.7793
MEAN_ANOMALY   = 98.0481

EPHEMERIS_TYPE = 0
CLASSIFICATION_TYPE = U
NORAD_CAT_ID   = 43682
ELEMENT_SET_NO = 999
REV_AT_EPOCH   = 39522
BSTAR          = .85980572E-3
MEAN_MOTION_DOT = .32652E-3
MEAN_MOTION_DDOT = 0

CCSDS_OMM_VERS = 2.0
CREATION_DATE  = 
ORIGINATOR     = 

OBJECT_NAME    = SAOCOM 1B
OBJECT_ID      = 2020-059A
CENTER_NAME    = EARTH
REF_FRAME      = TEME
TIME_SYSTEM    = UTC
MEAN_ELEMENT_THEORY = SGP/SGP4

EPOCH          = 2025-12-31T06:26:44.503296
MEAN_MOTION    = 14.82160040
ECCENTRICITY   = .00014062
INCLINATION    = 97.8844
RA_OF_ASC_NODE = 188.5198
ARG_OF_PERICENTER = 86.1370
MEAN_ANOMALY   = 274.0004

EPHEMERIS_TYPE = 0
CLASSIFICATION_TYPE = U
NORAD_CAT_ID   = 46265
ELEMENT_SET_NO = 999
REV_AT_EPOCH   = 28861
BSTAR          = .11814695E-3
MEAN_MOTION_DOT = .889E-5
MEAN_MOTION_DDOT = 0

CCSDS_OMM_VERS = 2.0
CREATION_DATE  = 
ORIGINATOR     = 

OBJECT_NAME    = CSS (TIANHE)
OBJECT_ID      = 2021-035A
CENTER_NAME    = EARTH
REF_FRAME      = TEME
TIME_SYSTEM    = UTC
MEAN_ELEMENT_THEORY = SGP/SGP4

EPOCH          = 2025-12-31T02:14:33.346464
MEAN_MOTION    = 15.59942629
ECCENTRICITY   = .00097473
INCLINATION    = 41.4668
RA_OF_ASC_NODE = 265.2206
ARG_OF_PERICENTER = 186.8831
MEAN_ANOMALY   = 173.1875

EPHEMERIS_TYPE = 0
CLASSIFICATION_TYPE = U
NORAD_CAT_ID   = 48274
ELEMENT_SET_NO = 999
REV_AT_EPOCH   = 26689
BSTAR          = .32907806E-3
MEAN_MOTION_DOT = .27123E-3
MEAN_MOTION_DDOT = 0

CCSDS_OMM_VERS = 2.0
CREATION_DATE  = 
ORIGINATOR     = 

OBJECT_NAME    = COSMOS 2550
OBJECT_ID      = 2021-056A
CENTER_NAME    = EARTH
REF_FRAME      = TEME
TIME_SYSTEM    = UTC
MEAN_ELEMENT_THEORY = SGP/SGP4

EPOCH          = 2025-12-31T05:52:48.017280
MEAN_MOTION    = 15.33837342
ECCENTRICITY   = .00083525
INCLINATION    = 67.1441
RA_OF_ASC_NODE = 247.9606
ARG_OF_PERICENTER = 269.6729
MEAN_ANOMALY   = 90.3468

EPHEMERIS_TYPE = 0
CLASSIFICATION_TYPE = U
NORAD_CAT_ID   = 48865
ELEMENT_SET_NO = 999
REV_AT_EPOCH   = 25296
BSTAR          = .546255E-6
MEAN_MOTION_DOT = -.174E-5
MEAN_MOTION_DDOT = 0

CCSDS_OMM_VERS = 2.0
CREATION_DATE  = 
ORIGINATOR     = 

OBJECT_NAME    = CZ-2C R/B
OBJECT_ID      = 2022-058K
CENTER_NAME    = EARTH
REF_FRAME      = TEME
TIME_SYSTEM    = UTC
MEAN_ELEMENT_THEORY = SGP/SGP4

EPOCH          = 2025-12-31T03:04:31.090368
MEAN_MOTION    = 15.49579460
ECCENTRICITY   = .00440776
INCLINATION    = 50.1917
RA_OF_ASC_NODE = 309.7067
ARG_OF_PERICENTER = 273.8841
MEAN_ANOMALY   = 85.7089

EPHEMERIS_TYPE = 0
CLASSIFICATION_TYPE = U
NORAD_CAT_ID   = 52794
ELEMENT_SET_NO = 999
REV_AT_EPOCH   = 19948
BSTAR          = .7878138E-3
MEAN_MOTION_DOT = .45929E-3
MEAN_MOTION_DDOT = 0

