SL-4 R/B                
1 39679U 14021B   25365.21245660  .00017159  00000+0  40084-3 0  9990
2 39679  51.6083 310.7904 0100338 212.9799 146.4899 15.37138051645737
ALOS-2                  
1 39766U 14029A   25365.27443731  .00002567  00000+0  35059-3 0  9993
2 39766  97.9215  99.8559 0001247 107.6962 252.4386 14.79456329626752
YAOGAN-29               
1 41038U 15069A   25365.30826257  .00001523  00000+0  19458-3 0  9991
2 41038  98.0213  28.5390 0001365 151.0155 209.1134 14.82907784545746
ASTRO-H (HITOMI)        
1 41337U 16012A   25365.27229900  .00005740  00000+0  34354-3 0  9997
2 41337  31.0002  77.8840 0009588   4.7524 355.3204 15.09491307541889
HXMT (HUIYAN)           
1 42758U 17034A   25365.30067560  .00009786  00000+0  49849-3 0  9995
2 42758  43.0155  36.6138 0031935 164.6669 195.5153 15.16490310472150
CZ-2C R/B               
1 43521U 18054D   25365.22985580  .00158224  00000+0  85796-3 0  9992
2 43521  35.1335  55.1350 0013215 327.3670  32.6247 15.78460516417971
SAOCOM 1A               
1 43641U 18076A   25365.30483968 -.00000342  00000+0 -36448-4 0  9991
2 43641  97.8848 189.4562 0001409  82.6895 277.4478 14.82154737391230
H-2A R/B                
1 43682U 18084L   25365.10794022  .00032652  00000+0  85981-3 0  9991
2 43682  98.8768 203.0042 0026146 261.7793  98.0481 15.38133745395227
SAOCOM 1B               
1 46265U 20059A   25365.26857064  .00000889  00000+0  11815-3 0  9991
2 46265  97.8844 188.5198 0001406  86.1370 274.0004 14.82160040288619
CSS (TIANHE)            
1 48274U 21035A   25365.09344151  .00027123  00000+0  32908-3 0  9993
2 48274  41.4668 265.2206 0009747 186.8831 173.1875 15.59942629266896
COSMOS 2550             
1 48865U 21056A   25365.24500020 -.00000174  00000+0  54625-6 0  9999
2 48865  67.1441 247.9606 0008352 269.6729  90.3468 15.33837342252962
CZ-2C R/B               
1 52794U 22058K   25365.12813762  .00045929  00000+0  78781-3 0  9997
2 52794  50.1917 309.7067 0044077 273.8841  85.7089 15.49579460199487
